{
  "type": "FeatureCollection",
  "features": [
    {
      "type": "Feature",
      "geometry": {
        "type": "Point",
        "coordinates": [
          0,
          0
        ]
      },
      "properties": {
        "id": "ENTRANCE"
      }
    },
    {
      "type": "Feature",
      "geometry": {
        "type": "Polygon",
        "coordinates": [
          [
            [
              50,
              1
            ],
            [
              102,
              0
            ],
            [
              111,
              364
            ],
            [
              57,
              365
            ],
            [
              50,
              1
            ]
          ]
        ]
      },
      "properties": {
        "id": "6b93f958-988c-41b2-8b13-6ab71876eda9",
        "imagePath": "148521975.png",
        "is_ev": true,
        "is_ada": false,
        "connectors": "J1772",
        "width_class": 0,
        "dist_to_entrance": null,
        "neighbors": [
          "d22d8146-5d35-45d1-aed2-68dc38630612"
        ]
      }
    },
    {
      "type": "Feature",
      "geometry": {
        "type": "Polygon",
        "coordinates": [
          [
            [
              173.0,
              0.0
            ],
            [
              228,
              1
            ],
            [
              234,
              432
            ],
            [
              180,
              433
            ],
            [
              176,
              225
            ],
            [
              173.0,
              0.0
            ]
          ]
        ]
      },
      "properties": {
        "id": "d22d8146-5d35-45d1-aed2-68dc38630612",
        "imagePath": "148521975.png",
        "is_ev": true,
        "is_ada": false,
        "connectors": "CCS",
        "width_class": 0,
        "dist_to_entrance": null,
        "neighbors": [
          "6b93f958-988c-41b2-8b13-6ab71876eda9"
        ]
      }
    }
  ]
}