{
  "type": "FeatureCollection",
  "features": [
    {
      "type": "Feature",
      "geometry": {
        "type": "Polygon",
        "coordinates": [
          [
            [
              113,
              40
            ],
            [
              114,
              86
            ],
            [
              243,
              90
            ],
            [
              240,
              45
            ],
            [
              113,
              40
            ]
          ]
        ]
      },
      "properties": {
        "id": "bfd4238e-6662-49d5-8a5c-bd1f602eee47",
        "imagePath": "156886202.png",
        "is_ev": true,
        "is_ada": false,
        "connectors": "J1772, CCS",
        "width_class": 3,
        "dist_to_entrance": null,
        "neighbors": [
          "715b8487-d6c3-4390-bb70-07dd049fab42",
          "bca26b47-751f-4f72-9c22-3195ed304bde"
        ]
      }
    },
    {
      "type": "Feature",
      "geometry": {
        "type": "Polygon",
        "coordinates": [
          [
            [
              115,
              128
            ],
            [
              114,
              84
            ],
            [
              244,
              88
            ],
            [
              243,
              133
            ],
            [
              115,
              128
            ]
          ]
        ]
      },
      "properties": {
        "id": "715b8487-d6c3-4390-bb70-07dd049fab42",
        "imagePath": "156886202.png",
        "is_ev": false,
        "is_ada": true,
        "width_class": 0,
        "dist_to_entrance": null,
        "neighbors": [
          "bfd4238e-6662-49d5-8a5c-bd1f602eee47",
          "bca26b47-751f-4f72-9c22-3195ed304bde"
        ]
      }
    },
    {
      "type": "Feature",
      "geometry": {
        "type": "Polygon",
        "coordinates": [
          [
            [
              38,
              16
            ],
            [
              81,
              18
            ],
            [
              82,
              175
            ],
            [
              38,
              175
            ],
            [
              38,
              16
            ]
          ]
        ]
      },
      "properties": {
        "id": "bca26b47-751f-4f72-9c22-3195ed304bde",
        "imagePath": "156886202.png",
        "is_ev": true,
        "is_ada": true,
        "width_class": 4,
        "dist_to_entrance": null,
        "neighbors": [
          "bfd4238e-6662-49d5-8a5c-bd1f602eee47",
          "715b8487-d6c3-4390-bb70-07dd049fab42"
        ],
        "connectors": "J1772"
      }
    },
    {
      "type": "Feature",
      "geometry": {
        "type": "Polygon",
        "coordinates": [
          [
            [
              113,
              40
            ],
            [
              114,
              86
            ],
            [
              243,
              90
            ],
            [
              240,
              45
            ],
            [
              113,
              40
            ]
          ]
        ]
      },
      "properties": {
        "id": "bfd4238e-6662-49d5-8a5c-bd1f602eee47",
        "imagePath": "156886202.png",
        "is_ev": false,
        "is_ada": false,
        "width_class": 1,
        "dist_to_entrance": null,
        "neighbors": [
          "715b8487-d6c3-4390-bb70-07dd049fab42",
          "bca26b47-751f-4f72-9c22-3195ed304bde"
        ]
      }
    },
    {
      "type": "Feature",
      "geometry": {
        "type": "Polygon",
        "coordinates": [
          [
            [
              115,
              128
            ],
            [
              114,
              84
            ],
            [
              244,
              88
            ],
            [
              243,
              133
            ],
            [
              115,
              128
            ]
          ]
        ]
      },
      "properties": {
        "id": "715b8487-d6c3-4390-bb70-07dd049fab42",
        "imagePath": "156886202.png",
        "is_ev": false,
        "is_ada": false,
        "width_class": 3,
        "dist_to_entrance": null,
        "neighbors": [
          "bfd4238e-6662-49d5-8a5c-bd1f602eee47",
          "bca26b47-751f-4f72-9c22-3195ed304bde"
        ]
      }
    },
    {
      "type": "Feature",
      "geometry": {
        "type": "Polygon",
        "coordinates": [
          [
            [
              38,
              16
            ],
            [
              81,
              18
            ],
            [
              82,
              175
            ],
            [
              38,
              175
            ],
            [
              38,
              16
            ]
          ]
        ]
      },
      "properties": {
        "id": "bca26b47-751f-4f72-9c22-3195ed304bde",
        "imagePath": "156886202.png",
        "is_ev": false,
        "is_ada": false,
        "width_class": 1,
        "dist_to_entrance": null,
        "neighbors": [
          "bfd4238e-6662-49d5-8a5c-bd1f602eee47",
          "715b8487-d6c3-4390-bb70-07dd049fab42"
        ]
      }
    }
  ]
}