{
  "type": "FeatureCollection",
  "features": [
    {
      "type": "Feature",
      "geometry": {
        "type": "Polygon",
        "coordinates": [
          [
            [
              271,
              906
            ],
            [
              255,
              948
            ],
            [
              92,
              891
            ],
            [
              109,
              848
            ],
            [
              271,
              906
            ]
          ]
        ]
      },
      "properties": {
        "id": "e36ab617-a48f-472e-8d81-ff01d7827469",
        "imagePath": "190423072.png",
        "is_ev": true,
        "is_ada": false,
        "width_class": 2,
        "dist_to_entrance": null,
        "neighbors": [
          "d40a48b4-3126-4340-a28f-ddcef6344755",
          "63dd85f7-c6eb-4d11-8ea6-4855bc8a6cde",
          "7dab1a23-bdd6-4019-8024-ce7f6f6131b4",
          "bce6d0a8-f68d-49a9-bb40-c165ac2c908f",
          "ab6c087f-a556-4819-aed0-b6515930528e"
        ],
        "connectors": "J1772"
      }
    },
    {
      "type": "Feature",
      "geometry": {
        "type": "Polygon",
        "coordinates": [
          [
            [
              296,
              851
            ],
            [
              336,
              864
            ],
            [
              316,
              927
            ],
            [
              274,
              913
            ],
            [
              296,
              851
            ]
          ]
        ]
      },
      "properties": {
        "id": "7dab1a23-bdd6-4019-8024-ce7f6f6131b4",
        "imagePath": "190423072.png",
        "is_ev": false,
        "is_ada": false,
        "width_class": 3,
        "dist_to_entrance": null,
        "neighbors": [
          "d40a48b4-3126-4340-a28f-ddcef6344755",
          "e36ab617-a48f-472e-8d81-ff01d7827469",
          "bce6d0a8-f68d-49a9-bb40-c165ac2c908f",
          "63dd85f7-c6eb-4d11-8ea6-4855bc8a6cde",
          "ab6c087f-a556-4819-aed0-b6515930528e"
        ]
      }
    },
    {
      "type": "Feature",
      "geometry": {
        "type": "Polygon",
        "coordinates": [
          [
            [
              432,
              46
            ],
            [
              469,
              59
            ],
            [
              456,
              99
            ],
            [
              418,
              86
            ],
            [
              432,
              46
            ]
          ]
        ]
      },
      "properties": {
        "id": "c0738940-8abd-48d2-8249-9100ca65b98a",
        "imagePath": "190423072.png",
        "is_ev": false,
        "is_ada": false,
        "width_class": 0,
        "dist_to_entrance": null,
        "neighbors": [
          "50c12891-87ce-4ea5-8ce4-5f8f19069b04",
          "67254b40-d110-4533-a900-c6c781343ff3",
          "e2c41e65-1d2a-4597-8124-eff62bfe0575",
          "94b3b4d3-2e6b-4d6c-b8e2-d67be1714bd9",
          "077b5a34-f0cb-4100-9d2a-070bcee1f827"
        ]
      }
    },
    {
      "type": "Feature",
      "geometry": {
        "type": "Polygon",
        "coordinates": [
          [
            [
              418,
              86
            ],
            [
              456,
              99
            ],
            [
              362,
              366
            ],
            [
              324,
              352
            ],
            [
              418,
              86
            ]
          ]
        ]
      },
      "properties": {
        "id": "50c12891-87ce-4ea5-8ce4-5f8f19069b04",
        "imagePath": "190423072.png",
        "is_ev": false,
        "is_ada": false,
        "width_class": 4,
        "dist_to_entrance": null,
        "neighbors": [
          "c0738940-8abd-48d2-8249-9100ca65b98a",
          "67254b40-d110-4533-a900-c6c781343ff3",
          "ab6c087f-a556-4819-aed0-b6515930528e",
          "077b5a34-f0cb-4100-9d2a-070bcee1f827",
          "baeb515e-cd32-4124-b4a4-078750dcc76b"
        ]
      }
    },
    {
      "type": "Feature",
      "geometry": {
        "type": "Polygon",
        "coordinates": [
          [
            [
              513,
              75
            ],
            [
              473,
              62
            ],
            [
              388,
              308
            ],
            [
              427,
              321
            ],
            [
              513,
              75
            ]
          ]
        ]
      },
      "properties": {
        "id": "67254b40-d110-4533-a900-c6c781343ff3",
        "imagePath": "190423072.png",
        "is_ev": false,
        "is_ada": false,
        "width_class": 0,
        "dist_to_entrance": null,
        "neighbors": [
          "c0738940-8abd-48d2-8249-9100ca65b98a",
          "50c12891-87ce-4ea5-8ce4-5f8f19069b04",
          "077b5a34-f0cb-4100-9d2a-070bcee1f827",
          "baeb515e-cd32-4124-b4a4-078750dcc76b",
          "3e0f0164-7275-4767-8bb1-d6a07d29baf1"
        ]
      }
    },
    {
      "type": "Feature",
      "geometry": {
        "type": "Polygon",
        "coordinates": [
          [
            [
              117,
              315
            ],
            [
              99,
              359
            ],
            [
              0,
              324
            ],
            [
              0,
              274
            ],
            [
              4,
              274
            ],
            [
              117,
              315
            ]
          ]
        ]
      },
      "properties": {
        "id": "e7ce5836-3c01-4df5-a567-6df50535329d",
        "imagePath": "190423072.png",
        "is_ev": false,
        "is_ada": false,
        "width_class": 4,
        "dist_to_entrance": null,
        "neighbors": [
          "c7e0c39d-6fdf-4087-885c-d79292b72c2a",
          "6608afa0-6e1e-4aea-b02e-7216cd0dceb0",
          "ab6c087f-a556-4819-aed0-b6515930528e",
          "08ab8f73-56fe-49e1-b7b7-4c2a90f8e49e",
          "696ff95d-6c9d-4055-9cbd-b326614a5f22"
        ]
      }
    },
    {
      "type": "Feature",
      "geometry": {
        "type": "Polygon",
        "coordinates": [
          [
            [
              84,
              400
            ],
            [
              100,
              356
            ],
            [
              1,
              322
            ],
            [
              0,
              374
            ],
            [
              84,
              400
            ]
          ]
        ]
      },
      "properties": {
        "id": "c7e0c39d-6fdf-4087-885c-d79292b72c2a",
        "imagePath": "190423072.png",
        "is_ev": false,
        "is_ada": false,
        "width_class": 1,
        "dist_to_entrance": null,
        "neighbors": [
          "e7ce5836-3c01-4df5-a567-6df50535329d",
          "6608afa0-6e1e-4aea-b02e-7216cd0dceb0",
          "696ff95d-6c9d-4055-9cbd-b326614a5f22",
          "ab6c087f-a556-4819-aed0-b6515930528e",
          "feadefe1-f479-4e7e-9b65-a95b3a248088"
        ]
      }
    },
    {
      "type": "Feature",
      "geometry": {
        "type": "Polygon",
        "coordinates": [
          [
            [
              71,
              441
            ],
            [
              55,
              484
            ],
            [
              0,
              465
            ],
            [
              0,
              412
            ],
            [
              71,
              441
            ]
          ]
        ]
      },
      "properties": {
        "id": "6608afa0-6e1e-4aea-b02e-7216cd0dceb0",
        "imagePath": "190423072.png",
        "is_ev": false,
        "is_ada": false,
        "width_class": 3,
        "dist_to_entrance": null,
        "neighbors": [
          "696ff95d-6c9d-4055-9cbd-b326614a5f22",
          "c7e0c39d-6fdf-4087-885c-d79292b72c2a",
          "e7ce5836-3c01-4df5-a567-6df50535329d",
          "93d8f45c-caee-48ac-9213-72adc996ddc3",
          "feadefe1-f479-4e7e-9b65-a95b3a248088"
        ]
      }
    },
    {
      "type": "Feature",
      "geometry": {
        "type": "Polygon",
        "coordinates": [
          [
            [
              39,
              526
            ],
            [
              56,
              482
            ],
            [
              0,
              462
            ],
            [
              0,
              513
            ],
            [
              39,
              526
            ]
          ]
        ]
      },
      "properties": {
        "id": "696ff95d-6c9d-4055-9cbd-b326614a5f22",
        "imagePath": "190423072.png",
        "is_ev": false,
        "is_ada": false,
        "width_class": 3,
        "dist_to_entrance": null,
        "neighbors": [
          "6608afa0-6e1e-4aea-b02e-7216cd0dceb0",
          "c7e0c39d-6fdf-4087-885c-d79292b72c2a",
          "93d8f45c-caee-48ac-9213-72adc996ddc3",
          "e7ce5836-3c01-4df5-a567-6df50535329d",
          "63dd85f7-c6eb-4d11-8ea6-4855bc8a6cde"
        ]
      }
    },
    {
      "type": "Feature",
      "geometry": {
        "type": "Polygon",
        "coordinates": [
          [
            [
              320,
              360
            ],
            [
              359,
              376
            ],
            [
              239,
              721
            ],
            [
              198,
              705
            ],
            [
              320,
              360
            ]
          ]
        ]
      },
      "properties": {
        "id": "ab6c087f-a556-4819-aed0-b6515930528e",
        "imagePath": "190423072.png",
        "is_ev": false,
        "is_ada": false,
        "width_class": 0,
        "dist_to_entrance": null,
        "neighbors": [
          "50c12891-87ce-4ea5-8ce4-5f8f19069b04",
          "d40a48b4-3126-4340-a28f-ddcef6344755",
          "bce6d0a8-f68d-49a9-bb40-c165ac2c908f",
          "e0ef9fc6-bc74-457b-96bb-9665aa15ab5b",
          "08ab8f73-56fe-49e1-b7b7-4c2a90f8e49e"
        ]
      }
    },
    {
      "type": "Feature",
      "geometry": {
        "type": "Polygon",
        "coordinates": [
          [
            [
              402,
              393
            ],
            [
              361,
              379
            ],
            [
              308,
              537
            ],
            [
              349,
              550
            ],
            [
              402,
              393
            ]
          ]
        ]
      },
      "properties": {
        "id": "e0ef9fc6-bc74-457b-96bb-9665aa15ab5b",
        "imagePath": "190423072.png",
        "is_ev": false,
        "is_ada": false,
        "width_class": 0,
        "dist_to_entrance": null,
        "neighbors": [
          "ab6c087f-a556-4819-aed0-b6515930528e",
          "d40a48b4-3126-4340-a28f-ddcef6344755",
          "08ab8f73-56fe-49e1-b7b7-4c2a90f8e49e",
          "5aa12f73-48aa-4ab1-857d-0462bf1b2825",
          "3e0f0164-7275-4767-8bb1-d6a07d29baf1"
        ]
      }
    },
    {
      "type": "Feature",
      "geometry": {
        "type": "Polygon",
        "coordinates": [
          [
            [
              562,
              46
            ],
            [
              576,
              4
            ],
            [
              563,
              0
            ],
            [
              432,
              0
            ],
            [
              562,
              46
            ]
          ]
        ]
      },
      "properties": {
        "id": "e2c41e65-1d2a-4597-8124-eff62bfe0575",
        "imagePath": "190423072.png",
        "is_ev": false,
        "is_ada": false,
        "width_class": 3,
        "dist_to_entrance": null,
        "neighbors": [
          "c0738940-8abd-48d2-8249-9100ca65b98a",
          "2f57c659-d69f-4006-b0f8-41bc4bcc956f",
          "67254b40-d110-4533-a900-c6c781343ff3",
          "94b3b4d3-2e6b-4d6c-b8e2-d67be1714bd9",
          "50c12891-87ce-4ea5-8ce4-5f8f19069b04"
        ]
      }
    },
    {
      "type": "Feature",
      "geometry": {
        "type": "Polygon",
        "coordinates": [
          [
            [
              566,
              46
            ],
            [
              607,
              60
            ],
            [
              575,
              158
            ],
            [
              532,
              144
            ],
            [
              566,
              46
            ]
          ]
        ]
      },
      "properties": {
        "id": "2f57c659-d69f-4006-b0f8-41bc4bcc956f",
        "imagePath": "190423072.png",
        "is_ev": false,
        "is_ada": false,
        "width_class": 1,
        "dist_to_entrance": null,
        "neighbors": [
          "e2c41e65-1d2a-4597-8124-eff62bfe0575",
          "baeb515e-cd32-4124-b4a4-078750dcc76b",
          "67254b40-d110-4533-a900-c6c781343ff3",
          "c0738940-8abd-48d2-8249-9100ca65b98a",
          "50c12891-87ce-4ea5-8ce4-5f8f19069b04"
        ]
      }
    },
    {
      "type": "Feature",
      "geometry": {
        "type": "Polygon",
        "coordinates": [
          [
            [
              533,
              144
            ],
            [
              575,
              159
            ],
            [
              494,
              389
            ],
            [
              451,
              374
            ],
            [
              533,
              144
            ]
          ]
        ]
      },
      "properties": {
        "id": "baeb515e-cd32-4124-b4a4-078750dcc76b",
        "imagePath": "190423072.png",
        "is_ev": false,
        "is_ada": false,
        "width_class": 3,
        "dist_to_entrance": null,
        "neighbors": [
          "50c12891-87ce-4ea5-8ce4-5f8f19069b04",
          "67254b40-d110-4533-a900-c6c781343ff3",
          "2f57c659-d69f-4006-b0f8-41bc4bcc956f",
          "5aa12f73-48aa-4ab1-857d-0462bf1b2825",
          "3e0f0164-7275-4767-8bb1-d6a07d29baf1"
        ]
      }
    },
    {
      "type": "Feature",
      "geometry": {
        "type": "Polygon",
        "coordinates": [
          [
            [
              451,
              374
            ],
            [
              494,
              390
            ],
            [
              423,
              580
            ],
            [
              383,
              566
            ],
            [
              451,
              374
            ]
          ]
        ]
      },
      "properties": {
        "id": "5aa12f73-48aa-4ab1-857d-0462bf1b2825",
        "imagePath": "190423072.png",
        "is_ev": false,
        "is_ada": false,
        "width_class": 0,
        "dist_to_entrance": null,
        "neighbors": [
          "e0ef9fc6-bc74-457b-96bb-9665aa15ab5b",
          "d1fc8b96-f681-4cff-879c-84fd3fcb9b3a",
          "baeb515e-cd32-4124-b4a4-078750dcc76b",
          "3e0f0164-7275-4767-8bb1-d6a07d29baf1",
          "50c12891-87ce-4ea5-8ce4-5f8f19069b04"
        ]
      }
    },
    {
      "type": "Feature",
      "geometry": {
        "type": "Polygon",
        "coordinates": [
          [
            [
              383,
              565
            ],
            [
              423,
              580
            ],
            [
              416,
              602
            ],
            [
              376,
              590
            ],
            [
              383,
              565
            ]
          ]
        ]
      },
      "properties": {
        "id": "d1fc8b96-f681-4cff-879c-84fd3fcb9b3a",
        "imagePath": "190423072.png",
        "is_ev": false,
        "is_ada": false,
        "width_class": 1,
        "dist_to_entrance": null,
        "neighbors": [
          "5aa12f73-48aa-4ab1-857d-0462bf1b2825",
          "e0ef9fc6-bc74-457b-96bb-9665aa15ab5b",
          "ab6c087f-a556-4819-aed0-b6515930528e",
          "d40a48b4-3126-4340-a28f-ddcef6344755",
          "08ab8f73-56fe-49e1-b7b7-4c2a90f8e49e"
        ]
      }
    },
    {
      "type": "Feature",
      "geometry": {
        "type": "Polygon",
        "coordinates": [
          [
            [
              346,
              550
            ],
            [
              308,
              537
            ],
            [
              198,
              836
            ],
            [
              239,
              852
            ],
            [
              346,
              550
            ]
          ]
        ]
      },
      "properties": {
        "id": "d40a48b4-3126-4340-a28f-ddcef6344755",
        "imagePath": "190423072.png",
        "is_ev": false,
        "is_ada": false,
        "width_class": 1,
        "dist_to_entrance": null,
        "neighbors": [
          "e36ab617-a48f-472e-8d81-ff01d7827469",
          "7dab1a23-bdd6-4019-8024-ce7f6f6131b4",
          "bce6d0a8-f68d-49a9-bb40-c165ac2c908f",
          "ab6c087f-a556-4819-aed0-b6515930528e",
          "e0ef9fc6-bc74-457b-96bb-9665aa15ab5b"
        ]
      }
    },
    {
      "type": "Feature",
      "geometry": {
        "type": "Polygon",
        "coordinates": [
          [
            [
              198,
              705
            ],
            [
              239,
              721
            ],
            [
              198,
              836
            ],
            [
              156,
              821
            ],
            [
              198,
              705
            ]
          ]
        ]
      },
      "properties": {
        "id": "bce6d0a8-f68d-49a9-bb40-c165ac2c908f",
        "imagePath": "190423072.png",
        "is_ev": false,
        "is_ada": false,
        "width_class": 4,
        "dist_to_entrance": null,
        "neighbors": [
          "ab6c087f-a556-4819-aed0-b6515930528e",
          "d40a48b4-3126-4340-a28f-ddcef6344755",
          "63dd85f7-c6eb-4d11-8ea6-4855bc8a6cde",
          "e36ab617-a48f-472e-8d81-ff01d7827469",
          "93d8f45c-caee-48ac-9213-72adc996ddc3"
        ]
      }
    },
    {
      "type": "Feature",
      "geometry": {
        "type": "Polygon",
        "coordinates": [
          [
            [
              392,
              30
            ],
            [
              354,
              17
            ],
            [
              360,
              0
            ],
            [
              404,
              0
            ],
            [
              392,
              30
            ]
          ]
        ]
      },
      "properties": {
        "id": "94b3b4d3-2e6b-4d6c-b8e2-d67be1714bd9",
        "imagePath": "190423072.png",
        "is_ev": false,
        "is_ada": false,
        "width_class": 1,
        "dist_to_entrance": null,
        "neighbors": [
          "077b5a34-f0cb-4100-9d2a-070bcee1f827",
          "c0738940-8abd-48d2-8249-9100ca65b98a",
          "e2c41e65-1d2a-4597-8124-eff62bfe0575",
          "67254b40-d110-4533-a900-c6c781343ff3",
          "50c12891-87ce-4ea5-8ce4-5f8f19069b04"
        ]
      }
    },
    {
      "type": "Feature",
      "geometry": {
        "type": "Polygon",
        "coordinates": [
          [
            [
              392,
              30
            ],
            [
              352,
              17
            ],
            [
              279,
              229
            ],
            [
              319,
              242
            ],
            [
              392,
              30
            ]
          ]
        ]
      },
      "properties": {
        "id": "077b5a34-f0cb-4100-9d2a-070bcee1f827",
        "imagePath": "190423072.png",
        "is_ev": false,
        "is_ada": false,
        "width_class": 3,
        "dist_to_entrance": null,
        "neighbors": [
          "50c12891-87ce-4ea5-8ce4-5f8f19069b04",
          "67254b40-d110-4533-a900-c6c781343ff3",
          "94b3b4d3-2e6b-4d6c-b8e2-d67be1714bd9",
          "08ab8f73-56fe-49e1-b7b7-4c2a90f8e49e",
          "c0738940-8abd-48d2-8249-9100ca65b98a"
        ]
      }
    },
    {
      "type": "Feature",
      "geometry": {
        "type": "Polygon",
        "coordinates": [
          [
            [
              319,
              242
            ],
            [
              278,
              229
            ],
            [
              204,
              438
            ],
            [
              243,
              453
            ],
            [
              319,
              242
            ]
          ]
        ]
      },
      "properties": {
        "id": "08ab8f73-56fe-49e1-b7b7-4c2a90f8e49e",
        "imagePath": "190423072.png",
        "is_ev": false,
        "is_ada": false,
        "width_class": 0,
        "dist_to_entrance": null,
        "neighbors": [
          "ab6c087f-a556-4819-aed0-b6515930528e",
          "e0ef9fc6-bc74-457b-96bb-9665aa15ab5b",
          "077b5a34-f0cb-4100-9d2a-070bcee1f827",
          "feadefe1-f479-4e7e-9b65-a95b3a248088",
          "50c12891-87ce-4ea5-8ce4-5f8f19069b04"
        ]
      }
    },
    {
      "type": "Feature",
      "geometry": {
        "type": "Polygon",
        "coordinates": [
          [
            [
              243,
              452
            ],
            [
              204,
              438
            ],
            [
              196,
              462
            ],
            [
              234,
              475
            ],
            [
              243,
              452
            ]
          ]
        ]
      },
      "properties": {
        "id": "feadefe1-f479-4e7e-9b65-a95b3a248088",
        "imagePath": "190423072.png",
        "is_ev": false,
        "is_ada": false,
        "width_class": 3,
        "dist_to_entrance": null,
        "neighbors": [
          "ab6c087f-a556-4819-aed0-b6515930528e",
          "08ab8f73-56fe-49e1-b7b7-4c2a90f8e49e",
          "93d8f45c-caee-48ac-9213-72adc996ddc3",
          "d40a48b4-3126-4340-a28f-ddcef6344755",
          "e0ef9fc6-bc74-457b-96bb-9665aa15ab5b"
        ]
      }
    },
    {
      "type": "Feature",
      "geometry": {
        "type": "Polygon",
        "coordinates": [
          [
            [
              214,
              536
            ],
            [
              177,
              522
            ],
            [
              127,
              660
            ],
            [
              166,
              675
            ],
            [
              214,
              536
            ]
          ]
        ]
      },
      "properties": {
        "id": "93d8f45c-caee-48ac-9213-72adc996ddc3",
        "imagePath": "190423072.png",
        "is_ev": false,
        "is_ada": false,
        "width_class": 4,
        "dist_to_entrance": null,
        "neighbors": [
          "ab6c087f-a556-4819-aed0-b6515930528e",
          "d40a48b4-3126-4340-a28f-ddcef6344755",
          "63dd85f7-c6eb-4d11-8ea6-4855bc8a6cde",
          "bce6d0a8-f68d-49a9-bb40-c165ac2c908f",
          "feadefe1-f479-4e7e-9b65-a95b3a248088"
        ]
      }
    },
    {
      "type": "Feature",
      "geometry": {
        "type": "Polygon",
        "coordinates": [
          [
            [
              167,
              675
            ],
            [
              127,
              660
            ],
            [
              62,
              836
            ],
            [
              100,
              852
            ],
            [
              105,
              850
            ],
            [
              167,
              675
            ]
          ]
        ]
      },
      "properties": {
        "id": "63dd85f7-c6eb-4d11-8ea6-4855bc8a6cde",
        "imagePath": "190423072.png",
        "is_ev": false,
        "is_ada": false,
        "width_class": 3,
        "dist_to_entrance": null,
        "neighbors": [
          "e36ab617-a48f-472e-8d81-ff01d7827469",
          "bce6d0a8-f68d-49a9-bb40-c165ac2c908f",
          "93d8f45c-caee-48ac-9213-72adc996ddc3",
          "ab6c087f-a556-4819-aed0-b6515930528e",
          "d40a48b4-3126-4340-a28f-ddcef6344755"
        ]
      }
    },
    {
      "type": "Feature",
      "geometry": {
        "type": "Polygon",
        "coordinates": [
          [
            [
              428,
              321
            ],
            [
              389,
              308
            ],
            [
              367,
              371
            ],
            [
              405,
              383
            ],
            [
              428,
              321
            ]
          ]
        ]
      },
      "properties": {
        "id": "3e0f0164-7275-4767-8bb1-d6a07d29baf1",
        "imagePath": "190423072.png",
        "is_ev": false,
        "is_ada": false,
        "width_class": 1,
        "dist_to_entrance": null,
        "neighbors": [
          "50c12891-87ce-4ea5-8ce4-5f8f19069b04",
          "67254b40-d110-4533-a900-c6c781343ff3",
          "e0ef9fc6-bc74-457b-96bb-9665aa15ab5b",
          "5aa12f73-48aa-4ab1-857d-0462bf1b2825",
          "ab6c087f-a556-4819-aed0-b6515930528e"
        ]
      }
    },
    {
      "type": "Feature",
      "geometry": {
        "type": "Polygon",
        "coordinates": [
          [
            [
              271,
              906
            ],
            [
              255,
              948
            ],
            [
              92,
              891
            ],
            [
              109,
              848
            ],
            [
              271,
              906
            ]
          ]
        ]
      },
      "properties": {
        "id": "e36ab617-a48f-472e-8d81-ff01d7827469",
        "imagePath": "190423072.png",
        "is_ev": false,
        "is_ada": false,
        "width_class": 4,
        "dist_to_entrance": null,
        "neighbors": [
          "d40a48b4-3126-4340-a28f-ddcef6344755",
          "63dd85f7-c6eb-4d11-8ea6-4855bc8a6cde",
          "7dab1a23-bdd6-4019-8024-ce7f6f6131b4",
          "bce6d0a8-f68d-49a9-bb40-c165ac2c908f",
          "ab6c087f-a556-4819-aed0-b6515930528e"
        ]
      }
    },
    {
      "type": "Feature",
      "geometry": {
        "type": "Polygon",
        "coordinates": [
          [
            [
              296,
              851
            ],
            [
              336,
              864
            ],
            [
              316,
              927
            ],
            [
              274,
              913
            ],
            [
              296,
              851
            ]
          ]
        ]
      },
      "properties": {
        "id": "7dab1a23-bdd6-4019-8024-ce7f6f6131b4",
        "imagePath": "190423072.png",
        "is_ev": false,
        "is_ada": false,
        "width_class": 1,
        "dist_to_entrance": null,
        "neighbors": [
          "d40a48b4-3126-4340-a28f-ddcef6344755",
          "e36ab617-a48f-472e-8d81-ff01d7827469",
          "bce6d0a8-f68d-49a9-bb40-c165ac2c908f",
          "63dd85f7-c6eb-4d11-8ea6-4855bc8a6cde",
          "ab6c087f-a556-4819-aed0-b6515930528e"
        ]
      }
    },
    {
      "type": "Feature",
      "geometry": {
        "type": "Polygon",
        "coordinates": [
          [
            [
              432,
              46
            ],
            [
              469,
              59
            ],
            [
              456,
              99
            ],
            [
              418,
              86
            ],
            [
              432,
              46
            ]
          ]
        ]
      },
      "properties": {
        "id": "c0738940-8abd-48d2-8249-9100ca65b98a",
        "imagePath": "190423072.png",
        "is_ev": false,
        "is_ada": false,
        "width_class": 4,
        "dist_to_entrance": null,
        "neighbors": [
          "50c12891-87ce-4ea5-8ce4-5f8f19069b04",
          "67254b40-d110-4533-a900-c6c781343ff3",
          "e2c41e65-1d2a-4597-8124-eff62bfe0575",
          "94b3b4d3-2e6b-4d6c-b8e2-d67be1714bd9",
          "077b5a34-f0cb-4100-9d2a-070bcee1f827"
        ]
      }
    },
    {
      "type": "Feature",
      "geometry": {
        "type": "Polygon",
        "coordinates": [
          [
            [
              418,
              86
            ],
            [
              456,
              99
            ],
            [
              362,
              366
            ],
            [
              324,
              352
            ],
            [
              418,
              86
            ]
          ]
        ]
      },
      "properties": {
        "id": "50c12891-87ce-4ea5-8ce4-5f8f19069b04",
        "imagePath": "190423072.png",
        "is_ev": false,
        "is_ada": false,
        "width_class": 1,
        "dist_to_entrance": null,
        "neighbors": [
          "c0738940-8abd-48d2-8249-9100ca65b98a",
          "67254b40-d110-4533-a900-c6c781343ff3",
          "ab6c087f-a556-4819-aed0-b6515930528e",
          "077b5a34-f0cb-4100-9d2a-070bcee1f827",
          "baeb515e-cd32-4124-b4a4-078750dcc76b"
        ]
      }
    },
    {
      "type": "Feature",
      "geometry": {
        "type": "Polygon",
        "coordinates": [
          [
            [
              513,
              75
            ],
            [
              473,
              62
            ],
            [
              388,
              308
            ],
            [
              427,
              321
            ],
            [
              513,
              75
            ]
          ]
        ]
      },
      "properties": {
        "id": "67254b40-d110-4533-a900-c6c781343ff3",
        "imagePath": "190423072.png",
        "is_ev": false,
        "is_ada": false,
        "width_class": 0,
        "dist_to_entrance": null,
        "neighbors": [
          "c0738940-8abd-48d2-8249-9100ca65b98a",
          "50c12891-87ce-4ea5-8ce4-5f8f19069b04",
          "077b5a34-f0cb-4100-9d2a-070bcee1f827",
          "baeb515e-cd32-4124-b4a4-078750dcc76b",
          "3e0f0164-7275-4767-8bb1-d6a07d29baf1"
        ]
      }
    },
    {
      "type": "Feature",
      "geometry": {
        "type": "Polygon",
        "coordinates": [
          [
            [
              117,
              315
            ],
            [
              99,
              359
            ],
            [
              0,
              324
            ],
            [
              0,
              274
            ],
            [
              4,
              274
            ],
            [
              117,
              315
            ]
          ]
        ]
      },
      "properties": {
        "id": "e7ce5836-3c01-4df5-a567-6df50535329d",
        "imagePath": "190423072.png",
        "is_ev": false,
        "is_ada": false,
        "width_class": 0,
        "dist_to_entrance": null,
        "neighbors": [
          "c7e0c39d-6fdf-4087-885c-d79292b72c2a",
          "6608afa0-6e1e-4aea-b02e-7216cd0dceb0",
          "ab6c087f-a556-4819-aed0-b6515930528e",
          "08ab8f73-56fe-49e1-b7b7-4c2a90f8e49e",
          "696ff95d-6c9d-4055-9cbd-b326614a5f22"
        ]
      }
    },
    {
      "type": "Feature",
      "geometry": {
        "type": "Polygon",
        "coordinates": [
          [
            [
              84,
              400
            ],
            [
              100,
              356
            ],
            [
              1,
              322
            ],
            [
              0,
              374
            ],
            [
              84,
              400
            ]
          ]
        ]
      },
      "properties": {
        "id": "c7e0c39d-6fdf-4087-885c-d79292b72c2a",
        "imagePath": "190423072.png",
        "is_ev": false,
        "is_ada": false,
        "width_class": 0,
        "dist_to_entrance": null,
        "neighbors": [
          "e7ce5836-3c01-4df5-a567-6df50535329d",
          "6608afa0-6e1e-4aea-b02e-7216cd0dceb0",
          "696ff95d-6c9d-4055-9cbd-b326614a5f22",
          "ab6c087f-a556-4819-aed0-b6515930528e",
          "feadefe1-f479-4e7e-9b65-a95b3a248088"
        ]
      }
    },
    {
      "type": "Feature",
      "geometry": {
        "type": "Polygon",
        "coordinates": [
          [
            [
              71,
              441
            ],
            [
              55,
              484
            ],
            [
              0,
              465
            ],
            [
              0,
              412
            ],
            [
              71,
              441
            ]
          ]
        ]
      },
      "properties": {
        "id": "6608afa0-6e1e-4aea-b02e-7216cd0dceb0",
        "imagePath": "190423072.png",
        "is_ev": false,
        "is_ada": false,
        "width_class": 0,
        "dist_to_entrance": null,
        "neighbors": [
          "696ff95d-6c9d-4055-9cbd-b326614a5f22",
          "c7e0c39d-6fdf-4087-885c-d79292b72c2a",
          "e7ce5836-3c01-4df5-a567-6df50535329d",
          "93d8f45c-caee-48ac-9213-72adc996ddc3",
          "feadefe1-f479-4e7e-9b65-a95b3a248088"
        ]
      }
    },
    {
      "type": "Feature",
      "geometry": {
        "type": "Polygon",
        "coordinates": [
          [
            [
              39,
              526
            ],
            [
              56,
              482
            ],
            [
              0,
              462
            ],
            [
              0,
              513
            ],
            [
              39,
              526
            ]
          ]
        ]
      },
      "properties": {
        "id": "696ff95d-6c9d-4055-9cbd-b326614a5f22",
        "imagePath": "190423072.png",
        "is_ev": false,
        "is_ada": false,
        "width_class": 1,
        "dist_to_entrance": null,
        "neighbors": [
          "6608afa0-6e1e-4aea-b02e-7216cd0dceb0",
          "c7e0c39d-6fdf-4087-885c-d79292b72c2a",
          "93d8f45c-caee-48ac-9213-72adc996ddc3",
          "e7ce5836-3c01-4df5-a567-6df50535329d",
          "63dd85f7-c6eb-4d11-8ea6-4855bc8a6cde"
        ]
      }
    },
    {
      "type": "Feature",
      "geometry": {
        "type": "Polygon",
        "coordinates": [
          [
            [
              320,
              360
            ],
            [
              359,
              376
            ],
            [
              239,
              721
            ],
            [
              198,
              705
            ],
            [
              320,
              360
            ]
          ]
        ]
      },
      "properties": {
        "id": "ab6c087f-a556-4819-aed0-b6515930528e",
        "imagePath": "190423072.png",
        "is_ev": false,
        "is_ada": false,
        "width_class": 0,
        "dist_to_entrance": null,
        "neighbors": [
          "50c12891-87ce-4ea5-8ce4-5f8f19069b04",
          "d40a48b4-3126-4340-a28f-ddcef6344755",
          "bce6d0a8-f68d-49a9-bb40-c165ac2c908f",
          "e0ef9fc6-bc74-457b-96bb-9665aa15ab5b",
          "08ab8f73-56fe-49e1-b7b7-4c2a90f8e49e"
        ]
      }
    },
    {
      "type": "Feature",
      "geometry": {
        "type": "Polygon",
        "coordinates": [
          [
            [
              402,
              393
            ],
            [
              361,
              379
            ],
            [
              308,
              537
            ],
            [
              349,
              550
            ],
            [
              402,
              393
            ]
          ]
        ]
      },
      "properties": {
        "id": "e0ef9fc6-bc74-457b-96bb-9665aa15ab5b",
        "imagePath": "190423072.png",
        "is_ev": false,
        "is_ada": false,
        "width_class": 1,
        "dist_to_entrance": null,
        "neighbors": [
          "ab6c087f-a556-4819-aed0-b6515930528e",
          "d40a48b4-3126-4340-a28f-ddcef6344755",
          "08ab8f73-56fe-49e1-b7b7-4c2a90f8e49e",
          "5aa12f73-48aa-4ab1-857d-0462bf1b2825",
          "3e0f0164-7275-4767-8bb1-d6a07d29baf1"
        ]
      }
    },
    {
      "type": "Feature",
      "geometry": {
        "type": "Polygon",
        "coordinates": [
          [
            [
              562,
              46
            ],
            [
              576,
              4
            ],
            [
              563,
              0
            ],
            [
              432,
              0
            ],
            [
              562,
              46
            ]
          ]
        ]
      },
      "properties": {
        "id": "e2c41e65-1d2a-4597-8124-eff62bfe0575",
        "imagePath": "190423072.png",
        "is_ev": false,
        "is_ada": false,
        "width_class": 1,
        "dist_to_entrance": null,
        "neighbors": [
          "c0738940-8abd-48d2-8249-9100ca65b98a",
          "2f57c659-d69f-4006-b0f8-41bc4bcc956f",
          "67254b40-d110-4533-a900-c6c781343ff3",
          "94b3b4d3-2e6b-4d6c-b8e2-d67be1714bd9",
          "50c12891-87ce-4ea5-8ce4-5f8f19069b04"
        ]
      }
    },
    {
      "type": "Feature",
      "geometry": {
        "type": "Polygon",
        "coordinates": [
          [
            [
              566,
              46
            ],
            [
              607,
              60
            ],
            [
              575,
              158
            ],
            [
              532,
              144
            ],
            [
              566,
              46
            ]
          ]
        ]
      },
      "properties": {
        "id": "2f57c659-d69f-4006-b0f8-41bc4bcc956f",
        "imagePath": "190423072.png",
        "is_ev": false,
        "is_ada": false,
        "width_class": 4,
        "dist_to_entrance": null,
        "neighbors": [
          "e2c41e65-1d2a-4597-8124-eff62bfe0575",
          "baeb515e-cd32-4124-b4a4-078750dcc76b",
          "67254b40-d110-4533-a900-c6c781343ff3",
          "c0738940-8abd-48d2-8249-9100ca65b98a",
          "50c12891-87ce-4ea5-8ce4-5f8f19069b04"
        ]
      }
    },
    {
      "type": "Feature",
      "geometry": {
        "type": "Polygon",
        "coordinates": [
          [
            [
              533,
              144
            ],
            [
              575,
              159
            ],
            [
              494,
              389
            ],
            [
              451,
              374
            ],
            [
              533,
              144
            ]
          ]
        ]
      },
      "properties": {
        "id": "baeb515e-cd32-4124-b4a4-078750dcc76b",
        "imagePath": "190423072.png",
        "is_ev": false,
        "is_ada": false,
        "width_class": 3,
        "dist_to_entrance": null,
        "neighbors": [
          "50c12891-87ce-4ea5-8ce4-5f8f19069b04",
          "67254b40-d110-4533-a900-c6c781343ff3",
          "2f57c659-d69f-4006-b0f8-41bc4bcc956f",
          "5aa12f73-48aa-4ab1-857d-0462bf1b2825",
          "3e0f0164-7275-4767-8bb1-d6a07d29baf1"
        ]
      }
    },
    {
      "type": "Feature",
      "geometry": {
        "type": "Polygon",
        "coordinates": [
          [
            [
              451,
              374
            ],
            [
              494,
              390
            ],
            [
              423,
              580
            ],
            [
              383,
              566
            ],
            [
              451,
              374
            ]
          ]
        ]
      },
      "properties": {
        "id": "5aa12f73-48aa-4ab1-857d-0462bf1b2825",
        "imagePath": "190423072.png",
        "is_ev": false,
        "is_ada": false,
        "width_class": 3,
        "dist_to_entrance": null,
        "neighbors": [
          "e0ef9fc6-bc74-457b-96bb-9665aa15ab5b",
          "d1fc8b96-f681-4cff-879c-84fd3fcb9b3a",
          "baeb515e-cd32-4124-b4a4-078750dcc76b",
          "3e0f0164-7275-4767-8bb1-d6a07d29baf1",
          "50c12891-87ce-4ea5-8ce4-5f8f19069b04"
        ]
      }
    },
    {
      "type": "Feature",
      "geometry": {
        "type": "Polygon",
        "coordinates": [
          [
            [
              383,
              565
            ],
            [
              423,
              580
            ],
            [
              416,
              602
            ],
            [
              376,
              590
            ],
            [
              383,
              565
            ]
          ]
        ]
      },
      "properties": {
        "id": "d1fc8b96-f681-4cff-879c-84fd3fcb9b3a",
        "imagePath": "190423072.png",
        "is_ev": false,
        "is_ada": false,
        "width_class": 1,
        "dist_to_entrance": null,
        "neighbors": [
          "5aa12f73-48aa-4ab1-857d-0462bf1b2825",
          "e0ef9fc6-bc74-457b-96bb-9665aa15ab5b",
          "ab6c087f-a556-4819-aed0-b6515930528e",
          "d40a48b4-3126-4340-a28f-ddcef6344755",
          "08ab8f73-56fe-49e1-b7b7-4c2a90f8e49e"
        ]
      }
    },
    {
      "type": "Feature",
      "geometry": {
        "type": "Polygon",
        "coordinates": [
          [
            [
              346,
              550
            ],
            [
              308,
              537
            ],
            [
              198,
              836
            ],
            [
              239,
              852
            ],
            [
              346,
              550
            ]
          ]
        ]
      },
      "properties": {
        "id": "d40a48b4-3126-4340-a28f-ddcef6344755",
        "imagePath": "190423072.png",
        "is_ev": false,
        "is_ada": false,
        "width_class": 1,
        "dist_to_entrance": null,
        "neighbors": [
          "e36ab617-a48f-472e-8d81-ff01d7827469",
          "7dab1a23-bdd6-4019-8024-ce7f6f6131b4",
          "bce6d0a8-f68d-49a9-bb40-c165ac2c908f",
          "ab6c087f-a556-4819-aed0-b6515930528e",
          "e0ef9fc6-bc74-457b-96bb-9665aa15ab5b"
        ]
      }
    },
    {
      "type": "Feature",
      "geometry": {
        "type": "Polygon",
        "coordinates": [
          [
            [
              198,
              705
            ],
            [
              239,
              721
            ],
            [
              198,
              836
            ],
            [
              156,
              821
            ],
            [
              198,
              705
            ]
          ]
        ]
      },
      "properties": {
        "id": "bce6d0a8-f68d-49a9-bb40-c165ac2c908f",
        "imagePath": "190423072.png",
        "is_ev": false,
        "is_ada": false,
        "width_class": 3,
        "dist_to_entrance": null,
        "neighbors": [
          "ab6c087f-a556-4819-aed0-b6515930528e",
          "d40a48b4-3126-4340-a28f-ddcef6344755",
          "63dd85f7-c6eb-4d11-8ea6-4855bc8a6cde",
          "e36ab617-a48f-472e-8d81-ff01d7827469",
          "93d8f45c-caee-48ac-9213-72adc996ddc3"
        ]
      }
    },
    {
      "type": "Feature",
      "geometry": {
        "type": "Polygon",
        "coordinates": [
          [
            [
              392,
              30
            ],
            [
              354,
              17
            ],
            [
              360,
              0
            ],
            [
              404,
              0
            ],
            [
              392,
              30
            ]
          ]
        ]
      },
      "properties": {
        "id": "94b3b4d3-2e6b-4d6c-b8e2-d67be1714bd9",
        "imagePath": "190423072.png",
        "is_ev": false,
        "is_ada": false,
        "width_class": 4,
        "dist_to_entrance": null,
        "neighbors": [
          "077b5a34-f0cb-4100-9d2a-070bcee1f827",
          "c0738940-8abd-48d2-8249-9100ca65b98a",
          "e2c41e65-1d2a-4597-8124-eff62bfe0575",
          "67254b40-d110-4533-a900-c6c781343ff3",
          "50c12891-87ce-4ea5-8ce4-5f8f19069b04"
        ]
      }
    },
    {
      "type": "Feature",
      "geometry": {
        "type": "Polygon",
        "coordinates": [
          [
            [
              392,
              30
            ],
            [
              352,
              17
            ],
            [
              279,
              229
            ],
            [
              319,
              242
            ],
            [
              392,
              30
            ]
          ]
        ]
      },
      "properties": {
        "id": "077b5a34-f0cb-4100-9d2a-070bcee1f827",
        "imagePath": "190423072.png",
        "is_ev": false,
        "is_ada": false,
        "width_class": 3,
        "dist_to_entrance": null,
        "neighbors": [
          "50c12891-87ce-4ea5-8ce4-5f8f19069b04",
          "67254b40-d110-4533-a900-c6c781343ff3",
          "94b3b4d3-2e6b-4d6c-b8e2-d67be1714bd9",
          "08ab8f73-56fe-49e1-b7b7-4c2a90f8e49e",
          "c0738940-8abd-48d2-8249-9100ca65b98a"
        ]
      }
    },
    {
      "type": "Feature",
      "geometry": {
        "type": "Polygon",
        "coordinates": [
          [
            [
              319,
              242
            ],
            [
              278,
              229
            ],
            [
              204,
              438
            ],
            [
              243,
              453
            ],
            [
              319,
              242
            ]
          ]
        ]
      },
      "properties": {
        "id": "08ab8f73-56fe-49e1-b7b7-4c2a90f8e49e",
        "imagePath": "190423072.png",
        "is_ev": false,
        "is_ada": false,
        "width_class": 4,
        "dist_to_entrance": null,
        "neighbors": [
          "ab6c087f-a556-4819-aed0-b6515930528e",
          "e0ef9fc6-bc74-457b-96bb-9665aa15ab5b",
          "077b5a34-f0cb-4100-9d2a-070bcee1f827",
          "feadefe1-f479-4e7e-9b65-a95b3a248088",
          "50c12891-87ce-4ea5-8ce4-5f8f19069b04"
        ]
      }
    },
    {
      "type": "Feature",
      "geometry": {
        "type": "Polygon",
        "coordinates": [
          [
            [
              243,
              452
            ],
            [
              204,
              438
            ],
            [
              196,
              462
            ],
            [
              234,
              475
            ],
            [
              243,
              452
            ]
          ]
        ]
      },
      "properties": {
        "id": "feadefe1-f479-4e7e-9b65-a95b3a248088",
        "imagePath": "190423072.png",
        "is_ev": false,
        "is_ada": false,
        "width_class": 0,
        "dist_to_entrance": null,
        "neighbors": [
          "ab6c087f-a556-4819-aed0-b6515930528e",
          "08ab8f73-56fe-49e1-b7b7-4c2a90f8e49e",
          "93d8f45c-caee-48ac-9213-72adc996ddc3",
          "d40a48b4-3126-4340-a28f-ddcef6344755",
          "e0ef9fc6-bc74-457b-96bb-9665aa15ab5b"
        ]
      }
    },
    {
      "type": "Feature",
      "geometry": {
        "type": "Polygon",
        "coordinates": [
          [
            [
              214,
              536
            ],
            [
              177,
              522
            ],
            [
              127,
              660
            ],
            [
              166,
              675
            ],
            [
              214,
              536
            ]
          ]
        ]
      },
      "properties": {
        "id": "93d8f45c-caee-48ac-9213-72adc996ddc3",
        "imagePath": "190423072.png",
        "is_ev": false,
        "is_ada": false,
        "width_class": 3,
        "dist_to_entrance": null,
        "neighbors": [
          "ab6c087f-a556-4819-aed0-b6515930528e",
          "d40a48b4-3126-4340-a28f-ddcef6344755",
          "63dd85f7-c6eb-4d11-8ea6-4855bc8a6cde",
          "bce6d0a8-f68d-49a9-bb40-c165ac2c908f",
          "feadefe1-f479-4e7e-9b65-a95b3a248088"
        ]
      }
    },
    {
      "type": "Feature",
      "geometry": {
        "type": "Polygon",
        "coordinates": [
          [
            [
              167,
              675
            ],
            [
              127,
              660
            ],
            [
              62,
              836
            ],
            [
              100,
              852
            ],
            [
              105,
              850
            ],
            [
              167,
              675
            ]
          ]
        ]
      },
      "properties": {
        "id": "63dd85f7-c6eb-4d11-8ea6-4855bc8a6cde",
        "imagePath": "190423072.png",
        "is_ev": false,
        "is_ada": false,
        "width_class": 0,
        "dist_to_entrance": null,
        "neighbors": [
          "e36ab617-a48f-472e-8d81-ff01d7827469",
          "bce6d0a8-f68d-49a9-bb40-c165ac2c908f",
          "93d8f45c-caee-48ac-9213-72adc996ddc3",
          "ab6c087f-a556-4819-aed0-b6515930528e",
          "d40a48b4-3126-4340-a28f-ddcef6344755"
        ]
      }
    },
    {
      "type": "Feature",
      "geometry": {
        "type": "Polygon",
        "coordinates": [
          [
            [
              428,
              321
            ],
            [
              389,
              308
            ],
            [
              367,
              371
            ],
            [
              405,
              383
            ],
            [
              428,
              321
            ]
          ]
        ]
      },
      "properties": {
        "id": "3e0f0164-7275-4767-8bb1-d6a07d29baf1",
        "imagePath": "190423072.png",
        "is_ev": false,
        "is_ada": false,
        "width_class": 0,
        "dist_to_entrance": null,
        "neighbors": [
          "50c12891-87ce-4ea5-8ce4-5f8f19069b04",
          "67254b40-d110-4533-a900-c6c781343ff3",
          "e0ef9fc6-bc74-457b-96bb-9665aa15ab5b",
          "5aa12f73-48aa-4ab1-857d-0462bf1b2825",
          "ab6c087f-a556-4819-aed0-b6515930528e"
        ]
      }
    }
  ]
}