{
  "type": "FeatureCollection",
  "features": [
    {
      "type": "Feature",
      "geometry": {
        "type": "Point",
        "coordinates": [
          0,
          0
        ]
      },
      "properties": {
        "id": "ENTRANCE"
      }
    },
    {
      "type": "Feature",
      "geometry": {
        "type": "Polygon",
        "coordinates": [
          [
            [
              140,
              228
            ],
            [
              132,
              170
            ],
            [
              281,
              150
            ],
            [
              289,
              208
            ],
            [
              140,
              228
            ]
          ]
        ]
      },
      "properties": {
        "id": "d072f553-2482-46ae-a487-2cbd1b126eaa",
        "imagePath": "219035790.png",
        "is_ev": false,
        "is_ada": false,
        "width_class": 1,
        "dist_to_entrance": null,
        "neighbors": [
          "e81cb579-5d02-4fe1-bfe8-ea9bae51cab3",
          "ad94ae07-a07a-4906-99f6-be45609425d9",
          "cefaa631-0562-453e-9e7e-a7f1d6189bf5"
        ]
      }
    },
    {
      "type": "Feature",
      "geometry": {
        "type": "Polygon",
        "coordinates": [
          [
            [
              124,
              114
            ],
            [
              133,
              174
            ],
            [
              281,
              155
            ],
            [
              272,
              96
            ],
            [
              124,
              114
            ]
          ]
        ]
      },
      "properties": {
        "id": "e81cb579-5d02-4fe1-bfe8-ea9bae51cab3",
        "imagePath": "219035790.png",
        "is_ev": false,
        "is_ada": false,
        "width_class": 2,
        "dist_to_entrance": null,
        "neighbors": [
          "d072f553-2482-46ae-a487-2cbd1b126eaa",
          "cefaa631-0562-453e-9e7e-a7f1d6189bf5",
          "ad94ae07-a07a-4906-99f6-be45609425d9"
        ]
      }
    },
    {
      "type": "Feature",
      "geometry": {
        "type": "Polygon",
        "coordinates": [
          [
            [
              45,
              68
            ],
            [
              43,
              18
            ],
            [
              67,
              12
            ],
            [
              154,
              0
            ],
            [
              264,
              0
            ],
            [
              271,
              42
            ],
            [
              117,
              61
            ],
            [
              45,
              68
            ]
          ]
        ]
      },
      "properties": {
        "id": "cefaa631-0562-453e-9e7e-a7f1d6189bf5",
        "imagePath": "219035790.png",
        "is_ev": true,
        "is_ada": false,
        "width_class": 1,
        "dist_to_entrance": null,
        "neighbors": [
          "ad94ae07-a07a-4906-99f6-be45609425d9",
          "e81cb579-5d02-4fe1-bfe8-ea9bae51cab3",
          "d072f553-2482-46ae-a487-2cbd1b126eaa"
        ],
        "connectors": "CCS"
      }
    },
    {
      "type": "Feature",
      "geometry": {
        "type": "Polygon",
        "coordinates": [
          [
            [
              52,
              64
            ],
            [
              1,
              71
            ],
            [
              10,
              116
            ],
            [
              15,
              124
            ],
            [
              20,
              129
            ],
            [
              17,
              142
            ],
            [
              12,
              153
            ],
            [
              17,
              171
            ],
            [
              22,
              181
            ],
            [
              20,
              188
            ],
            [
              20,
              199
            ],
            [
              24,
              204
            ],
            [
              28,
              210
            ],
            [
              24,
              215
            ],
            [
              23,
              220
            ],
            [
              25,
              227
            ],
            [
              28,
              231
            ],
            [
              26,
              237
            ],
            [
              25,
              245
            ],
            [
              77,
              238
            ],
            [
              52,
              64
            ]
          ]
        ]
      },
      "properties": {
        "id": "ad94ae07-a07a-4906-99f6-be45609425d9",
        "imagePath": "219035790.png",
        "is_ev": false,
        "is_ada": true,
        "width_class": 2,
        "dist_to_entrance": null,
        "neighbors": [
          "cefaa631-0562-453e-9e7e-a7f1d6189bf5",
          "e81cb579-5d02-4fe1-bfe8-ea9bae51cab3",
          "d072f553-2482-46ae-a487-2cbd1b126eaa"
        ]
      }
    },
    {
      "type": "Feature",
      "geometry": {
        "type": "Polygon",
        "coordinates": [
          [
            [
              140,
              228
            ],
            [
              132,
              170
            ],
            [
              281,
              150
            ],
            [
              289,
              208
            ],
            [
              140,
              228
            ]
          ]
        ]
      },
      "properties": {
        "id": "d072f553-2482-46ae-a487-2cbd1b126eaa",
        "imagePath": "219035790.png",
        "is_ev": false,
        "is_ada": false,
        "width_class": 4,
        "dist_to_entrance": null,
        "neighbors": [
          "e81cb579-5d02-4fe1-bfe8-ea9bae51cab3",
          "ad94ae07-a07a-4906-99f6-be45609425d9",
          "cefaa631-0562-453e-9e7e-a7f1d6189bf5"
        ]
      }
    },
    {
      "type": "Feature",
      "geometry": {
        "type": "Polygon",
        "coordinates": [
          [
            [
              124,
              114
            ],
            [
              133,
              174
            ],
            [
              281,
              155
            ],
            [
              272,
              96
            ],
            [
              124,
              114
            ]
          ]
        ]
      },
      "properties": {
        "id": "e81cb579-5d02-4fe1-bfe8-ea9bae51cab3",
        "imagePath": "219035790.png",
        "is_ev": false,
        "is_ada": false,
        "width_class": 0,
        "dist_to_entrance": null,
        "neighbors": [
          "d072f553-2482-46ae-a487-2cbd1b126eaa",
          "cefaa631-0562-453e-9e7e-a7f1d6189bf5",
          "ad94ae07-a07a-4906-99f6-be45609425d9"
        ]
      }
    },
    {
      "type": "Feature",
      "geometry": {
        "type": "Polygon",
        "coordinates": [
          [
            [
              45,
              68
            ],
            [
              43,
              18
            ],
            [
              67,
              12
            ],
            [
              154,
              0
            ],
            [
              264,
              0
            ],
            [
              271,
              42
            ],
            [
              117,
              61
            ],
            [
              45,
              68
            ]
          ]
        ]
      },
      "properties": {
        "id": "cefaa631-0562-453e-9e7e-a7f1d6189bf5",
        "imagePath": "219035790.png",
        "is_ev": false,
        "is_ada": false,
        "width_class": 1,
        "dist_to_entrance": null,
        "neighbors": [
          "ad94ae07-a07a-4906-99f6-be45609425d9",
          "e81cb579-5d02-4fe1-bfe8-ea9bae51cab3",
          "d072f553-2482-46ae-a487-2cbd1b126eaa"
        ]
      }
    },
    {
      "type": "Feature",
      "geometry": {
        "type": "Polygon",
        "coordinates": [
          [
            [
              52,
              64
            ],
            [
              1,
              71
            ],
            [
              10,
              116
            ],
            [
              15,
              124
            ],
            [
              20,
              129
            ],
            [
              17,
              142
            ],
            [
              12,
              153
            ],
            [
              17,
              171
            ],
            [
              22,
              181
            ],
            [
              20,
              188
            ],
            [
              20,
              199
            ],
            [
              24,
              204
            ],
            [
              28,
              210
            ],
            [
              24,
              215
            ],
            [
              23,
              220
            ],
            [
              25,
              227
            ],
            [
              28,
              231
            ],
            [
              26,
              237
            ],
            [
              25,
              245
            ],
            [
              77,
              238
            ],
            [
              52,
              64
            ]
          ]
        ]
      },
      "properties": {
        "id": "ad94ae07-a07a-4906-99f6-be45609425d9",
        "imagePath": "219035790.png",
        "is_ev": false,
        "is_ada": false,
        "width_class": 3,
        "dist_to_entrance": null,
        "neighbors": [
          "cefaa631-0562-453e-9e7e-a7f1d6189bf5",
          "e81cb579-5d02-4fe1-bfe8-ea9bae51cab3",
          "d072f553-2482-46ae-a487-2cbd1b126eaa"
        ]
      }
    }
  ]
}