{
  "type": "FeatureCollection",
  "features": [
    {
      "type": "Feature",
      "geometry": {
        "type": "Point",
        "coordinates": [
          0,
          0
        ]
      },
      "properties": {
        "id": "ENTRANCE"
      }
    },
    {
      "type": "Feature",
      "geometry": {
        "type": "Polygon",
        "coordinates": [
          [
            [
              161,
              246
            ],
            [
              478,
              633
            ],
            [
              444,
              659
            ],
            [
              126,
              275
            ],
            [
              161,
              246
            ]
          ]
        ]
      },
      "properties": {
        "id": "f9a010fb-c1a8-4b3c-9816-c092a4cfc75c",
        "imagePath": "386442953.png",
        "is_ev": false,
        "is_ada": false,
        "width_class": 3,
        "dist_to_entrance": null,
        "neighbors": [
          "558e6105-52d9-4506-955f-2f9e2a2a0649",
          "bb90c987-4712-45de-9b4f-9a0d465f57d0",
          "a5f3c400-ff6d-4413-bc1a-568c838843ce",
          "8861c27f-47e1-4010-b198-1a31b62af5a3",
          "b195efc7-f6dd-4bfa-a86b-ed9b9a75a688"
        ]
      }
    },
    {
      "type": "Feature",
      "geometry": {
        "type": "Polygon",
        "coordinates": [
          [
            [
              92,
              302
            ],
            [
              128,
              273
            ],
            [
              448,
              661
            ],
            [
              408,
              687
            ],
            [
              92,
              302
            ]
          ]
        ]
      },
      "properties": {
        "id": "558e6105-52d9-4506-955f-2f9e2a2a0649",
        "imagePath": "386442953.png",
        "is_ev": false,
        "is_ada": false,
        "width_class": 3,
        "dist_to_entrance": null,
        "neighbors": [
          "f9a010fb-c1a8-4b3c-9816-c092a4cfc75c",
          "bb90c987-4712-45de-9b4f-9a0d465f57d0",
          "a5f3c400-ff6d-4413-bc1a-568c838843ce",
          "8861c27f-47e1-4010-b198-1a31b62af5a3",
          "90a5a959-04ed-4cd7-a517-08f48f60b666"
        ]
      }
    },
    {
      "type": "Feature",
      "geometry": {
        "type": "Polygon",
        "coordinates": [
          [
            [
              192,
              222
            ],
            [
              225,
              193
            ],
            [
              543,
              576
            ],
            [
              508,
              606
            ],
            [
              192,
              222
            ]
          ]
        ]
      },
      "properties": {
        "id": "8861c27f-47e1-4010-b198-1a31b62af5a3",
        "imagePath": "386442953.png",
        "is_ev": false,
        "is_ada": false,
        "width_class": 0,
        "dist_to_entrance": null,
        "neighbors": [
          "f9a010fb-c1a8-4b3c-9816-c092a4cfc75c",
          "558e6105-52d9-4506-955f-2f9e2a2a0649",
          "bb90c987-4712-45de-9b4f-9a0d465f57d0",
          "a5f3c400-ff6d-4413-bc1a-568c838843ce",
          "f6d32b6b-d460-44f6-85b5-107b7ee05238"
        ]
      }
    },
    {
      "type": "Feature",
      "geometry": {
        "type": "Polygon",
        "coordinates": [
          [
            [
              261,
              164
            ],
            [
              226,
              193
            ],
            [
              545,
              578
            ],
            [
              577,
              548
            ],
            [
              261,
              164
            ]
          ]
        ]
      },
      "properties": {
        "id": "bb90c987-4712-45de-9b4f-9a0d465f57d0",
        "imagePath": "386442953.png",
        "is_ev": false,
        "is_ada": false,
        "width_class": 4,
        "dist_to_entrance": null,
        "neighbors": [
          "f9a010fb-c1a8-4b3c-9816-c092a4cfc75c",
          "558e6105-52d9-4506-955f-2f9e2a2a0649",
          "a5f3c400-ff6d-4413-bc1a-568c838843ce",
          "8861c27f-47e1-4010-b198-1a31b62af5a3",
          "3d38176d-d464-4750-bcca-ae496a44b9c5"
        ]
      }
    },
    {
      "type": "Feature",
      "geometry": {
        "type": "Polygon",
        "coordinates": [
          [
            [
              318,
              171
            ],
            [
              356,
              140
            ],
            [
              670.0,
              521.7841269841269
            ],
            [
              668,
              528
            ],
            [
              636,
              552
            ],
            [
              318,
              171
            ]
          ]
        ]
      },
      "properties": {
        "id": "a5f3c400-ff6d-4413-bc1a-568c838843ce",
        "imagePath": "386442953.png",
        "is_ev": false,
        "is_ada": false,
        "width_class": 3,
        "dist_to_entrance": null,
        "neighbors": [
          "f9a010fb-c1a8-4b3c-9816-c092a4cfc75c",
          "558e6105-52d9-4506-955f-2f9e2a2a0649",
          "bb90c987-4712-45de-9b4f-9a0d465f57d0",
          "8861c27f-47e1-4010-b198-1a31b62af5a3",
          "3d38176d-d464-4750-bcca-ae496a44b9c5"
        ]
      }
    },
    {
      "type": "Feature",
      "geometry": {
        "type": "Polygon",
        "coordinates": [
          [
            [
              91,
              220
            ],
            [
              141,
              180
            ],
            [
              113,
              144
            ],
            [
              64,
              185
            ],
            [
              91,
              220
            ]
          ]
        ]
      },
      "properties": {
        "id": "b195efc7-f6dd-4bfa-a86b-ed9b9a75a688",
        "imagePath": "386442953.png",
        "is_ev": false,
        "is_ada": false,
        "width_class": 4,
        "dist_to_entrance": null,
        "neighbors": [
          "f6d32b6b-d460-44f6-85b5-107b7ee05238",
          "3d38176d-d464-4750-bcca-ae496a44b9c5",
          "90a5a959-04ed-4cd7-a517-08f48f60b666",
          "f9a010fb-c1a8-4b3c-9816-c092a4cfc75c",
          "8861c27f-47e1-4010-b198-1a31b62af5a3"
        ]
      }
    },
    {
      "type": "Feature",
      "geometry": {
        "type": "Polygon",
        "coordinates": [
          [
            [
              125,
              135
            ],
            [
              140,
              123
            ],
            [
              168,
              156
            ],
            [
              154,
              169
            ],
            [
              125,
              135
            ]
          ]
        ]
      },
      "properties": {
        "id": "f6d32b6b-d460-44f6-85b5-107b7ee05238",
        "imagePath": "386442953.png",
        "is_ev": false,
        "is_ada": false,
        "width_class": 1,
        "dist_to_entrance": null,
        "neighbors": [
          "b195efc7-f6dd-4bfa-a86b-ed9b9a75a688",
          "3d38176d-d464-4750-bcca-ae496a44b9c5",
          "8861c27f-47e1-4010-b198-1a31b62af5a3",
          "bb90c987-4712-45de-9b4f-9a0d465f57d0",
          "f9a010fb-c1a8-4b3c-9816-c092a4cfc75c"
        ]
      }
    },
    {
      "type": "Feature",
      "geometry": {
        "type": "Polygon",
        "coordinates": [
          [
            [
              148,
              117
            ],
            [
              175,
              152
            ],
            [
              190,
              139
            ],
            [
              162,
              104
            ],
            [
              148,
              117
            ]
          ]
        ]
      },
      "properties": {
        "id": "3d38176d-d464-4750-bcca-ae496a44b9c5",
        "imagePath": "386442953.png",
        "is_ev": false,
        "is_ada": false,
        "width_class": 0,
        "dist_to_entrance": null,
        "neighbors": [
          "f6d32b6b-d460-44f6-85b5-107b7ee05238",
          "b195efc7-f6dd-4bfa-a86b-ed9b9a75a688",
          "bb90c987-4712-45de-9b4f-9a0d465f57d0",
          "8861c27f-47e1-4010-b198-1a31b62af5a3",
          "f9a010fb-c1a8-4b3c-9816-c092a4cfc75c"
        ]
      }
    },
    {
      "type": "Feature",
      "geometry": {
        "type": "Polygon",
        "coordinates": [
          [
            [
              37,
              289
            ],
            [
              71,
              259
            ],
            [
              58,
              242
            ],
            [
              24,
              270
            ],
            [
              37,
              289
            ]
          ]
        ]
      },
      "properties": {
        "id": "90a5a959-04ed-4cd7-a517-08f48f60b666",
        "imagePath": "386442953.png",
        "is_ev": false,
        "is_ada": false,
        "width_class": 0,
        "dist_to_entrance": null,
        "neighbors": [
          "558e6105-52d9-4506-955f-2f9e2a2a0649",
          "b195efc7-f6dd-4bfa-a86b-ed9b9a75a688",
          "f9a010fb-c1a8-4b3c-9816-c092a4cfc75c",
          "f6d32b6b-d460-44f6-85b5-107b7ee05238",
          "3d38176d-d464-4750-bcca-ae496a44b9c5"
        ]
      }
    },
    {
      "type": "Feature",
      "geometry": {
        "type": "Polygon",
        "coordinates": [
          [
            [
              161,
              246
            ],
            [
              478,
              633
            ],
            [
              444,
              659
            ],
            [
              126,
              275
            ],
            [
              161,
              246
            ]
          ]
        ]
      },
      "properties": {
        "id": "f9a010fb-c1a8-4b3c-9816-c092a4cfc75c",
        "imagePath": "386442953.png",
        "is_ev": false,
        "is_ada": false,
        "width_class": 4,
        "dist_to_entrance": null,
        "neighbors": [
          "558e6105-52d9-4506-955f-2f9e2a2a0649",
          "bb90c987-4712-45de-9b4f-9a0d465f57d0",
          "a5f3c400-ff6d-4413-bc1a-568c838843ce",
          "8861c27f-47e1-4010-b198-1a31b62af5a3",
          "b195efc7-f6dd-4bfa-a86b-ed9b9a75a688"
        ]
      }
    },
    {
      "type": "Feature",
      "geometry": {
        "type": "Polygon",
        "coordinates": [
          [
            [
              92,
              302
            ],
            [
              128,
              273
            ],
            [
              448,
              661
            ],
            [
              408,
              687
            ],
            [
              92,
              302
            ]
          ]
        ]
      },
      "properties": {
        "id": "558e6105-52d9-4506-955f-2f9e2a2a0649",
        "imagePath": "386442953.png",
        "is_ev": false,
        "is_ada": false,
        "width_class": 4,
        "dist_to_entrance": null,
        "neighbors": [
          "f9a010fb-c1a8-4b3c-9816-c092a4cfc75c",
          "bb90c987-4712-45de-9b4f-9a0d465f57d0",
          "a5f3c400-ff6d-4413-bc1a-568c838843ce",
          "8861c27f-47e1-4010-b198-1a31b62af5a3",
          "90a5a959-04ed-4cd7-a517-08f48f60b666"
        ]
      }
    },
    {
      "type": "Feature",
      "geometry": {
        "type": "Polygon",
        "coordinates": [
          [
            [
              192,
              222
            ],
            [
              225,
              193
            ],
            [
              543,
              576
            ],
            [
              508,
              606
            ],
            [
              192,
              222
            ]
          ]
        ]
      },
      "properties": {
        "id": "8861c27f-47e1-4010-b198-1a31b62af5a3",
        "imagePath": "386442953.png",
        "is_ev": false,
        "is_ada": false,
        "width_class": 4,
        "dist_to_entrance": null,
        "neighbors": [
          "f9a010fb-c1a8-4b3c-9816-c092a4cfc75c",
          "558e6105-52d9-4506-955f-2f9e2a2a0649",
          "bb90c987-4712-45de-9b4f-9a0d465f57d0",
          "a5f3c400-ff6d-4413-bc1a-568c838843ce",
          "f6d32b6b-d460-44f6-85b5-107b7ee05238"
        ]
      }
    },
    {
      "type": "Feature",
      "geometry": {
        "type": "Polygon",
        "coordinates": [
          [
            [
              261,
              164
            ],
            [
              226,
              193
            ],
            [
              545,
              578
            ],
            [
              577,
              548
            ],
            [
              261,
              164
            ]
          ]
        ]
      },
      "properties": {
        "id": "bb90c987-4712-45de-9b4f-9a0d465f57d0",
        "imagePath": "386442953.png",
        "is_ev": false,
        "is_ada": false,
        "width_class": 0,
        "dist_to_entrance": null,
        "neighbors": [
          "f9a010fb-c1a8-4b3c-9816-c092a4cfc75c",
          "558e6105-52d9-4506-955f-2f9e2a2a0649",
          "a5f3c400-ff6d-4413-bc1a-568c838843ce",
          "8861c27f-47e1-4010-b198-1a31b62af5a3",
          "3d38176d-d464-4750-bcca-ae496a44b9c5"
        ]
      }
    },
    {
      "type": "Feature",
      "geometry": {
        "type": "Polygon",
        "coordinates": [
          [
            [
              318,
              171
            ],
            [
              356,
              140
            ],
            [
              670.0,
              521.7841269841269
            ],
            [
              668,
              528
            ],
            [
              636,
              552
            ],
            [
              318,
              171
            ]
          ]
        ]
      },
      "properties": {
        "id": "a5f3c400-ff6d-4413-bc1a-568c838843ce",
        "imagePath": "386442953.png",
        "is_ev": false,
        "is_ada": false,
        "width_class": 3,
        "dist_to_entrance": null,
        "neighbors": [
          "f9a010fb-c1a8-4b3c-9816-c092a4cfc75c",
          "558e6105-52d9-4506-955f-2f9e2a2a0649",
          "bb90c987-4712-45de-9b4f-9a0d465f57d0",
          "8861c27f-47e1-4010-b198-1a31b62af5a3",
          "3d38176d-d464-4750-bcca-ae496a44b9c5"
        ]
      }
    },
    {
      "type": "Feature",
      "geometry": {
        "type": "Polygon",
        "coordinates": [
          [
            [
              91,
              220
            ],
            [
              141,
              180
            ],
            [
              113,
              144
            ],
            [
              64,
              185
            ],
            [
              91,
              220
            ]
          ]
        ]
      },
      "properties": {
        "id": "b195efc7-f6dd-4bfa-a86b-ed9b9a75a688",
        "imagePath": "386442953.png",
        "is_ev": false,
        "is_ada": false,
        "width_class": 4,
        "dist_to_entrance": null,
        "neighbors": [
          "f6d32b6b-d460-44f6-85b5-107b7ee05238",
          "3d38176d-d464-4750-bcca-ae496a44b9c5",
          "90a5a959-04ed-4cd7-a517-08f48f60b666",
          "f9a010fb-c1a8-4b3c-9816-c092a4cfc75c",
          "8861c27f-47e1-4010-b198-1a31b62af5a3"
        ]
      }
    },
    {
      "type": "Feature",
      "geometry": {
        "type": "Polygon",
        "coordinates": [
          [
            [
              125,
              135
            ],
            [
              140,
              123
            ],
            [
              168,
              156
            ],
            [
              154,
              169
            ],
            [
              125,
              135
            ]
          ]
        ]
      },
      "properties": {
        "id": "f6d32b6b-d460-44f6-85b5-107b7ee05238",
        "imagePath": "386442953.png",
        "is_ev": false,
        "is_ada": false,
        "width_class": 4,
        "dist_to_entrance": null,
        "neighbors": [
          "b195efc7-f6dd-4bfa-a86b-ed9b9a75a688",
          "3d38176d-d464-4750-bcca-ae496a44b9c5",
          "8861c27f-47e1-4010-b198-1a31b62af5a3",
          "bb90c987-4712-45de-9b4f-9a0d465f57d0",
          "f9a010fb-c1a8-4b3c-9816-c092a4cfc75c"
        ]
      }
    },
    {
      "type": "Feature",
      "geometry": {
        "type": "Polygon",
        "coordinates": [
          [
            [
              148,
              117
            ],
            [
              175,
              152
            ],
            [
              190,
              139
            ],
            [
              162,
              104
            ],
            [
              148,
              117
            ]
          ]
        ]
      },
      "properties": {
        "id": "3d38176d-d464-4750-bcca-ae496a44b9c5",
        "imagePath": "386442953.png",
        "is_ev": false,
        "is_ada": false,
        "width_class": 0,
        "dist_to_entrance": null,
        "neighbors": [
          "f6d32b6b-d460-44f6-85b5-107b7ee05238",
          "b195efc7-f6dd-4bfa-a86b-ed9b9a75a688",
          "bb90c987-4712-45de-9b4f-9a0d465f57d0",
          "8861c27f-47e1-4010-b198-1a31b62af5a3",
          "f9a010fb-c1a8-4b3c-9816-c092a4cfc75c"
        ]
      }
    },
    {
      "type": "Feature",
      "geometry": {
        "type": "Polygon",
        "coordinates": [
          [
            [
              37,
              289
            ],
            [
              71,
              259
            ],
            [
              58,
              242
            ],
            [
              24,
              270
            ],
            [
              37,
              289
            ]
          ]
        ]
      },
      "properties": {
        "id": "90a5a959-04ed-4cd7-a517-08f48f60b666",
        "imagePath": "386442953.png",
        "is_ev": false,
        "is_ada": false,
        "width_class": 1,
        "dist_to_entrance": null,
        "neighbors": [
          "558e6105-52d9-4506-955f-2f9e2a2a0649",
          "b195efc7-f6dd-4bfa-a86b-ed9b9a75a688",
          "f9a010fb-c1a8-4b3c-9816-c092a4cfc75c",
          "f6d32b6b-d460-44f6-85b5-107b7ee05238",
          "3d38176d-d464-4750-bcca-ae496a44b9c5"
        ]
      }
    }
  ]
}